#cP2011  4  2  0  0  0.00000000      96 ORBIT IGS05 HLM  IGS
## 1629 518400.00000000   900.00000000 55653 0.0000000000000
+   32   G01G02G03G04G05G06G07G08G09G10G11G12G13G14G15G16G17
+        G18G19G20G21G22G23G24G25G26G27G28G29G30G31G32  0  0
+          0  0  0  0  0  0  0  0  0  0  0  0  0  0  0  0  0
+          0  0  0  0  0  0  0  0  0  0  0  0  0  0  0  0  0
+          0  0  0  0  0  0  0  0  0  0  0  0  0  0  0  0  0
++         0  2  2  3  2  2  2  3  2  2  2  2  2  2  2  3  2
++         2  2  2  3  2  2  4  2  2  3  2  2  2  2  2  0  0
++         0  0  0  0  0  0  0  0  0  0  0  0  0  0  0  0  0
++         0  0  0  0  0  0  0  0  0  0  0  0  0  0  0  0  0
++         0  0  0  0  0  0  0  0  0  0  0  0  0  0  0  0  0
%c G  cc GPS ccc cccc cccc cccc cccc ccccc ccccc ccccc ccccc
%c cc cc ccc ccc cccc cccc cccc cccc ccccc ccccc ccccc ccccc
%f  1.2500000  1.025000000  0.00000000000  0.000000000000000
%f  0.0000000  0.000000000  0.00000000000  0.000000000000000
%i    0    0    0    0      0      0      0      0         0
%i    0    0    0    0      0      0      0      0         0
/* FINAL ORBIT COMBINATION FROM WEIGHTED AVERAGE OF:        
/* cod emr esa gfz grg jpl mit ngs sio                      
/* REFERENCED TO IGS TIME (IGST) AND TO WEIGHTED MEAN POLE: 
/* PCV:IGS05_1627 OL/AL:FES2004  NONE     Y  ORB:CMB CLK:CMB
*  2011  4  2 15  0  0.00000000
PG01 -25766.312767  -6671.629934    993.998507 999999.999999
PG02  21624.844386 -10560.435715 -10644.346485    328.498303  9  8  4  77       
PG03 -14302.115571   6551.138388  20980.891659    696.637524  6  6  6 110       
PG04  19008.163577    887.309383 -18870.204398     77.383169  6  7  6 118       
PG05  22694.797501  -3420.469244  13436.321271   -138.541248  9  8  4 124       
PG06 -15962.515075   1610.359018  21345.865590   -236.922051  6  5  6 108       
PG07   2769.298395  16570.010133  20523.071080      7.120451  6  5  2 107       
PG08  12104.538360   8588.777019  22097.088152      7.637528  5  7  3 111       
PG09  13634.669574 -21455.286437  -8219.814551     71.372516  6  8  5 130       
PG10  25361.075493   8528.359530   -842.338824    -70.514253  4  6  3 102       
PG11 -10778.828979  23773.819743  -4081.480008   -139.432578  4  7  7 100       
PG12   6999.695179 -13359.729343 -21821.485599    -14.706290  8  5  6 136       
PG13   5021.048234  26022.638940   1094.994366    276.696369  6  8  7 106       
PG14 -13909.772412 -15839.106369 -16085.583056    141.449045  5  6  5  72       
PG15   5998.571782 -20599.128045  15556.325108   -138.376199  8  8  6 104       
PG16 -23803.336154    903.079871  12092.784830   -162.206950  9  9  9 100       
PG17  14448.728768  16266.616809 -15253.459733    184.238329  5  3  5 115       
PG18 -16182.170424 -16015.690370  14285.488915    129.763552  6  7  5 102       
PG19  -9815.903115  17059.385259  17670.827352   -126.371624  9  8  7 130       
PG20  -2332.679759  15748.269833 -21411.642427     48.839559  6  6  6 102       
PG21  -5250.722238 -16160.028185  20686.042584   -134.673490 10  8  7 104       
PG22 -23612.031873 -11271.618722   5047.417376    150.779434  6  7  6 103       
PG23  -2024.755850  24000.785794 -10800.425362    316.032555  8  9  5 124       
PG24 -12587.959239  20751.845798 -10399.132414 999999.999999
PG25  -8420.406659 -16212.336555 -19300.230312     -1.007800  7  5  4  94       
PG26  12692.272728  -8417.917982  21105.437746   -161.629826  6  5  6 100       
PG27  17684.391740 -19527.568790   -841.305022    251.724245  6  9  3 128       
PG28  21451.445909  13495.036908   8893.493229     28.932632  4  7  5 100       
PG29  -3897.594553 -26193.998095  -2209.744574    196.897155  9  8  7  86       
PG30 -25983.707171  -3370.589852   4039.150352    333.905621  5  8  3 122       
PG31 -19491.594412   1972.916842 -17828.432832     61.198915  7  7  7  98       
PG32 -11643.682253  11215.256938 -20713.384128   -227.241895  7  6  4  98       
*  2011  4  2 15 15  0.00000000
PG01 -25675.465300  -6879.298119  -1867.283398 999999.999999
PG02  20895.998095  -9353.518761 -13007.740631    328.500281  9  8  4  90       
PG03 -15281.323265   4256.155736  20912.050175    696.641732  6  6  6  98       
PG04  17566.680393   2533.730269 -20061.462164     77.391984  7  7  6 117       
PG05  24004.197346  -2867.576173  11098.997377   -138.546274  8  8  3 121       
PG06 -16688.424469   -664.036491  20850.631474   -237.026656  5  6  6 110       
PG07   1096.122180  18123.236862  19314.678133      7.121592  6  6  3 114       
PG08  10196.220147  10241.624652  22307.114428      7.637716  6  7  3 106       
PG09  14249.948925 -21860.520515  -5459.919722     71.373756  5  8  5 138       
PG10  25070.339141   8713.888163  -3638.939030    -70.515691  4  6  3  83       
PG11 -11336.962833  23785.153702  -1382.094435   -139.435588  3  8  7 102       
PG12   9376.088722 -12674.616179 -21318.337849    -14.703854  8  6  7 133       
PG13   4844.237022  26031.641316  -1820.776799    276.694981  6  9  7 100       
PG14 -14155.970474 -17562.933212 -13974.013429    141.451141  5  6  5  85       
PG15   6731.965753 -18843.792327  17389.673967   -138.373483  8  8  6  99       
PG16 -24935.374472    405.106004   9598.691383   -162.209262  9  9  9 123       
PG17  14671.250764  17896.749085 -13101.394763    184.238395  5  4  5 118       
PG18 -14495.750320 -15770.733015  16241.518878    129.765475  6  7  4  93       
PG19 -10374.303757  15008.221824  19180.381133   -126.375039  9  8  7 127       
PG20  -4705.269655  15236.316462 -21386.239223     48.839673  6  7  6 102       
PG21  -3566.301447 -17668.780670  19716.208461   -134.676500 10  9  8 107       
PG22 -22842.424567 -11384.926682   7709.232732    150.778742  5  6  6  81       
PG23  -2605.020346  22723.917412 -13204.301368    316.030299  8  9  6 123       
PG24 -13557.513694  21263.296330  -7819.908986 999999.999999
PG25  -6187.514832 -15784.470572 -20463.866638     -1.008095  7  5  3  96       
PG26  13257.233420  -5908.741561  21626.503960   -161.638955  6  5  6 119       
PG27  17850.827182 -19381.965038   2072.439962    251.725819  6  8  3 171       
PG28  20362.510419  13345.675577  11439.010079     28.934742  3  6  5  95       
PG29  -3556.381407 -25841.992989  -5024.564328    196.899700  9  9  7  86       
PG30 -26268.943352  -3692.849547   1208.163483    333.909465  5  8  3 117       
PG31 -18048.079367    370.019591 -19351.419388     61.203389  6  7  7  89       
PG32 -13860.519764  10327.890982 -19765.744584   -227.248510  7  6  4 103       
*  2011  4  2 15 30  0.00000000
PG01 -25280.517421  -7031.090509  -4696.747309 999999.999999
PG02  20061.161707  -7918.654658 -15141.410860    328.502384  8  8  4 105       
PG03 -16350.144585   2038.091621  20470.413695    696.646755  6  6  7  94       
PG04  16132.449166   4337.476621 -20916.127380     77.401595  7  7  5 124       
PG05  25069.972742  -2433.937861   8571.524605   -138.551778  8  8  3 112       
PG06 -17495.372580  -2829.310722  20002.802296   -237.131568  5  6  6 106       
PG07   -389.031003  19647.943129  17771.995349      7.122536  6  7  3 112       
PG08   8381.191354  12007.156839  22134.143824      7.637507  6  7  2 112       
PG09  14644.349174 -22053.665850  -2607.150715     71.376296  5  8  4 138       
PG10  24487.419223   8847.988987  -6374.514829    -70.516435  5  6  3  95       
PG11 -11759.597313  23545.198463   1341.524128   -139.438523  3  8  8 102       
PG12  11710.994332 -12134.201091 -20446.487045    -14.701303  9  7  7 131       
PG13   4585.470343  25731.696510  -4705.156922    276.693269  7  9  7 105       
PG14 -14427.833210 -19024.811018 -11621.265313    141.453159  6  6  4  88       
PG15   7617.562064 -16949.433045  18922.099153   -138.370790  8  8  6 102       
PG16 -25809.880159     33.896216   6942.367690   -162.211857  9  8  9 110       
PG17  14902.198418  19266.845848 -10724.670239    184.238427  5  5  5 114       
PG18 -12601.267205 -15566.858491  17927.933879    129.767242  7  7  3 117       
PG19 -11073.929220  12843.125335  20356.588810   -126.378493  8  8  7 127       
PG20  -7077.610613  14842.702320 -20997.642714     48.839567  6  8  7 107       
PG21  -2034.424785 -19165.705904  18412.932481   -134.678667 10  9  8 105       
PG22 -21795.117785 -11472.663715  10239.873545    150.777718  5  6  6  96       
PG23  -3332.792433  21232.539296 -15377.070548    316.028044  8  9  6 121       
PG24 -14291.479379  21605.178622  -5103.675962 999999.999999
PG25  -3825.041443 -15455.035286 -21275.945320     -1.008388  7  5  3 107       
PG26  13966.820148  -3400.796697  21753.033166   -161.647961  6  5  6 108       
PG27  17817.314990 -18989.535267   4950.062046    251.727887  6  8  5 131       
PG28  19003.527834  13193.239484  13795.025103     28.936915  3  6  6 105       
PG29  -3104.430345 -25208.213778  -7752.942047    196.901889 10  9  8  79       
PG30 -26252.280051  -3949.692135  -1643.671912    333.913372  5  8  3 118       
PG31 -16591.425035  -1428.313930 -20537.772573     61.207777  5  7  6  96       
PG32 -15996.867639   9586.935030 -18466.136948   -227.254957  7  6  4  79       
EOF
